{
"type": "FeatureCollection",
"name": "HEC-RAS-domain",
"features": [
{ "type": "Feature", "properties": { "OBJECTID": 1, "FID_1": 0.0, "Cells": 82240.0, "Faces": 167735.0, "Facepoints": 87323.0, "Name": "AmiteMaurepas", "Manning_s": 0.06, "Cell_Volum": 0.01, "Cell_Minim": 0.01, "Face_Profi": 0.01, "Face_Area": 0.01, "Face_Area1": 0.02, "Laminar_De": 0.2, "Count": 428.0, "Length": 1592175.23468, "Area": 50606092504.5, "Cell_Size": 800.0, "Cell_Size1": 800.0, "Cell_Shift": 0.0, "Cell_Shif1": 0.0, "Shape_Length": 1592175.2348152294, "Shape_Area": 50606092505.537216 }, "geometry": { "type": "MultiPolygon", "coordinates": [ [ [ [ 1664902.743991255760193, 2829271.810857500880957 ], [ 1665781.067037753760815, 2827379.945874836295843 ], [ 1668703.186849668622017, 2821086.34986625239253 ], [ 1674844.54891075193882, 2807861.775921750813723 ], [ 1673310.285903170704842, 2790268.901986833661795 ], [ 1669924.667018249630928, 2784769.128865666687489 ], [ 1666576.650092251598835, 2775025.898024085909128 ], [ 1665090.156018003821373, 2769883.885998416692019 ], [ 1665186.56297741830349, 2769218.569087583571672 ], [ 1667379.884050086140633, 2754084.763069167733192 ], [ 1686870.914949834346771, 2756212.267016250640154 ], [ 1686413.290865086019039, 2763036.431845583021641 ], [ 1685866.109872840344906, 2766842.030861668288708 ], [ 1685741.13702566921711, 2773247.199153669178486 ], [ 1690488.965128421783447, 2776331.750071167945862 ], [ 1689789.222105339169502, 2783230.958057500422001 ], [ 1688852.406065583229065, 2792469.425144836306572 ], [ 1688333.773900754749775, 2797584.844047833234072 ], [ 1687622.490874506533146, 2804601.451077584177256 ], [ 1687746.232096835970879, 2805655.435846250504255 ], [ 1688768.088977001607418, 2814359.666141167283058 ], [ 1688837.911015838384628, 2814954.434964749962091 ], [ 1688893.121863417327404, 2815424.745047751814127 ], [ 1690002.835851334035397, 2824878.176928251981735 ], [ 1690068.780929416418076, 2825439.973048750311136 ], [ 1690384.162844583392143, 2828126.8059296682477 ], [ 1696725.780082583427429, 2829865.636113416403532 ], [ 1703625.650141090154648, 2823852.873860750347376 ], [ 1703885.670946501195431, 2823626.303119666874409 ], [ 1705859.447838835418224, 2811198.144905168563128 ], [ 1706139.096885837614536, 2809437.570998501032591 ], [ 1706647.342916585505009, 2806237.997017085552216 ], [ 1708328.491129085421562, 2796770.329928833991289 ], [ 1708590.741916917264462, 2795293.593052919954062 ], [ 1708014.096088588237762, 2788037.30802483484149 ], [ 1707920.034925006330013, 2786853.71393533423543 ], [ 1707363.331970170140266, 2779848.686934918165207 ], [ 1705636.780961334705353, 2775408.951063752174377 ], [ 1705215.364153251051903, 2774325.342010501772165 ], [ 1704770.957889840006828, 2769772.14704866707325 ], [ 1707725.257099337875843, 2756688.825118251144886 ], [ 1717572.919162504374981, 2757532.911028500646353 ], [ 1718179.795901499688625, 2760143.274902250617743 ], [ 1719288.673933088779449, 2764913.111163083463907 ], [ 1719721.249839588999748, 2766773.911903418600559 ], [ 1720694.767905667424202, 2771286.344151500612497 ], [ 1722753.426846086978912, 2779865.012033499777317 ], [ 1724199.906892754137516, 2786042.083012666553259 ], [ 1722526.651052922010422, 2790835.47007941827178 ], [ 1718820.76213925331831, 2801453.394053500145674 ], [ 1714979.817065253853798, 2812460.648941833525896 ], [ 1719153.778861671686172, 2815151.623874835669994 ], [ 1720483.660060167312622, 2816009.041123252362013 ], [ 1722291.280132584273815, 2817174.500078417360783 ], [ 1722522.426980003714561, 2816488.557880751788616 ], [ 1722565.982995256781578, 2816359.305842667818069 ], [ 1722729.595857001841068, 2815873.781879335641861 ], [ 1725774.478874839842319, 2806749.417910251766443 ], [ 1727142.422005087137222, 2804827.174051333218813 ], [ 1729064.91816008836031, 2802125.804126001894474 ], [ 1730597.994162172079086, 2799971.736911833286285 ], [ 1731640.358875334262848, 2798507.20703250169754 ], [ 1731851.165868416428566, 2798189.291001666337252 ], [ 1732058.068013668060303, 2797877.265050917863846 ], [ 1732960.692848838865757, 2796516.059111919254065 ], [ 1733309.764985337853432, 2795989.651044 ], [ 1733658.158973589539528, 2795464.271845418959856 ], [ 1733916.929125338792801, 2795074.048872586339712 ], [ 1734549.751022420823574, 2794119.772894002497196 ], [ 1735908.461887672543526, 2792070.945954918861389 ], [ 1737657.713966585695744, 2789428.719940166920424 ], [ 1741145.485862419009209, 2785521.95216316729784 ], [ 1741178.774837836623192, 2785402.102009169757366 ], [ 1741397.015871167182922, 2784616.389013666659594 ], [ 1743048.01585, 2778672.845126502215862 ], [ 1745053.032837338745594, 2775776.599934753030539 ], [ 1746103.098978668451309, 2774259.852968253195286 ], [ 1747451.012949503958225, 2772312.959880419075489 ], [ 1756355.849142417311668, 2765432.031057000160217 ], [ 1759284.702864751219749, 2762678.113008417189121 ], [ 1760568.332843422889709, 2762747.086951833218336 ], [ 1760703.334870003163815, 2762754.341858584433794 ], [ 1765383.914091505110264, 2763005.921079833060503 ], [ 1765415.87400133907795, 2762989.436860833317041 ], [ 1768214.980935916304588, 2761545.687123667448759 ], [ 1768843.744114086031914, 2761450.641053918749094 ], [ 1769069.267941251397133, 2761416.549914751201868 ], [ 1770211.627861253917217, 2761406.616863749921322 ], [ 1770861.259107917547226, 2761382.992895253002644 ], [ 1770994.660087838768959, 2761378.141855083405972 ], [ 1771304.320885837078094, 2761366.883019335567951 ], [ 1772662.815872251987457, 2761399.420027751475573 ], [ 1772963.2270168364048, 2761406.616863749921322 ], [ 1773058.467968083918095, 2761410.803863249719143 ], [ 1776073.309051252901554, 2761543.371839586645365 ], [ 1776518.866887167096138, 2766189.8891213349998 ], [ 1776588.058021754026413, 2766911.470027253031731 ], [ 1778350.174904339015484, 2767489.648989003151655 ], [ 1781294.336010754108429, 2768455.717923000454903 ], [ 1782250.298993833363056, 2769999.965162586420774 ], [ 1782617.977064251899719, 2774265.029139000922441 ], [ 1779823.624057166278362, 2776765.240017835050821 ], [ 1781147.265110671520233, 2783015.764918334782124 ], [ 1783941.61811774969101, 2784707.084042251110077 ], [ 1784456.366104006767273, 2789045.68396083638072 ], [ 1785632.935929335653782, 2792795.998966749757528 ], [ 1783647.475005254149437, 2796031.565002169460058 ], [ 1784566.813061587512493, 2797899.86211858317256 ], [ 1785689.037851251661777, 2800180.534066416323185 ], [ 1787120.018913172185421, 2802199.470973417162895 ], [ 1790045.072118170559406, 2806326.548021085560322 ], [ 1791809.925871923565865, 2806400.083963252604008 ], [ 1795192.563135504722595, 2804120.480910919606686 ], [ 1799972.377066671848297, 2789339.826089084148407 ], [ 1808281.899161502718925, 2782721.622133918106556 ], [ 1822841.947141088545322, 2763381.761863585561514 ], [ 1822429.007022090256214, 2757371.250918749719858 ], [ 1821568.639976419508457, 2747179.21815325319767 ], [ 1819229.114143669605255, 2738556.399112835526466 ], [ 1819368.110912919044495, 2738561.480139419436455 ], [ 1824292.569896005094051, 2738741.555894751101732 ], [ 1828540.059104420244694, 2738896.980124585330486 ], [ 1839866.336976751685143, 2740691.106129501014948 ], [ 1841787.287859253585339, 2743834.360013585537672 ], [ 1848248.603020586073399, 2741704.139864586293697 ], [ 1849926.704979337751865, 2741136.461866084486246 ], [ 1858026.535892501473427, 2738704.684905502945185 ], [ 1859617.246949918568134, 2738503.559979669749737 ], [ 1859580.679109670221806, 2736967.700846668332815 ], [ 1860184.052902922034264, 2734298.231120001524687 ], [ 1860038.419007837772369, 2731278.970098167657852 ], [ 1859233.283150918781757, 2725759.582843001931906 ], [ 1858831.032971173524857, 2723016.977107752114534 ], [ 1858483.637012422084808, 2717732.888922668993473 ], [ 1858010.322014167904854, 2712611.175084751099348 ], [ 1857767.432080000638962, 2709982.913937084376812 ], [ 1834468.963913254439831, 2714090.847978416830301 ], [ 1820791.654981836676598, 2712991.77898233383894 ], [ 1808091.297836668789387, 2696749.974851835519075 ], [ 1795513.058885589241982, 2669273.240107253193855 ], [ 1789530.206021919846535, 2665218.782008834183216 ], [ 1770180.936977751553059, 2652108.841037169098854 ], [ 1769379.630837589502335, 2651566.011086083948612 ], [ 1763395.809143833816051, 2628363.434131752699614 ], [ 1771699.888008087873459, 2608946.540879 ], [ 1767486.120845086872578, 2603562.245873335748911 ], [ 1762163.507146500051022, 2595378.413159668445587 ], [ 1759803.274006083607674, 2591811.837943751364946 ], [ 1757901.974002920091152, 2588913.994986169040203 ], [ 1753304.487134918570518, 2582113.72610641643405 ], [ 1752696.245897337794304, 2575807.221002917736769 ], [ 1748374.529147088527679, 2577151.755059249699116 ], [ 1748246.477894000709057, 2579840.822843834757805 ], [ 1747478.173000171780586, 2580417.052006334066391 ], [ 1747606.223925173282623, 2588068.090838085860014 ], [ 1748022.389103338122368, 2588996.460044335573912 ], [ 1745621.434915751218796, 2592037.667872667312622 ], [ 1745557.410109423100948, 2593830.379838418215513 ], [ 1744052.812068752944469, 2594310.571135252714157 ], [ 1743060.418056167662144, 2595527.053938500583172 ], [ 1740979.590853005647659, 2596775.550129167735577 ], [ 1736753.912952668964863, 2596647.498876083642244 ], [ 1734288.932974502444267, 2595815.16884783655405 ], [ 1731375.776071168482304, 2594022.456882085651159 ], [ 1730095.268133506178856, 2592966.03707891702652 ], [ 1727630.289139583706856, 2592261.756991419941187 ], [ 1724877.194908253848553, 2592197.731857001781464 ], [ 1723234.379952423274517, 2592447.798942167311907 ], [ 1721511.980838172137737, 2592802.000005416572094 ], [ 1718932.716967836022377, 2593124.495095334947109 ], [ 1715131.865973755717278, 2593374.430947169661522 ], [ 1711596.179147504270077, 2593219.364000085741282 ], [ 1707451.699903666973114, 2591834.614144917577505 ], [ 1706162.640145838260651, 2591403.936856668442488 ], [ 1704087.009126506745815, 2590021.616130501031876 ], [ 1702348.804925754666328, 2588699.069891083985567 ], [ 1700950.685018584132195, 2587263.162001751363277 ], [ 1699741.499116756021976, 2586104.358873169869184 ], [ 1699300.649932838976383, 2585852.445991169661283 ], [ 1698834.60985442250967, 2585928.019987002015114 ], [ 1697360.91496717184782, 2587250.565898336470127 ], [ 1695736.07208825647831, 2588308.603152334690094 ], [ 1692461.195107840001583, 2591218.205928917974234 ], [ 1691655.072048172354698, 2591281.184149418026209 ], [ 1689148.531129501760006, 2591961.351096168160439 ], [ 1688455.769063584506512, 2591986.541990667581558 ], [ 1686024.80214074999094, 2591583.480132751166821 ], [ 1684122.853844918310642, 2590676.59185466915369 ], [ 1680711.320969834923744, 2588137.604150500148535 ], [ 1676498.601048834621906, 2585017.933880668133497 ], [ 1666212.368012420833111, 2576651.482109669595957 ], [ 1663913.370970003306866, 2577267.70791133493185 ], [ 1663202.34188025444746, 2577054.398954752832651 ], [ 1661922.488140754401684, 2577552.120072167366743 ], [ 1658414.739906921982765, 2577457.316127918660641 ], [ 1657371.896848253905773, 2577149.202899001538754 ], [ 1653958.952886752784252, 2576817.388930086046457 ], [ 1651257.038999252021313, 2576390.771016918122768 ], [ 1650759.317881837487221, 2575869.349159501492977 ], [ 1647820.394953921437263, 2574802.804048500955105 ], [ 1645473.996103420853615, 2572930.425903502851725 ], [ 1644502.254936672747135, 2571697.973972085863352 ], [ 1641752.939897254109383, 2568853.854004167020321 ], [ 1637794.873010255396366, 2564872.087033335119486 ], [ 1636538.720010749995708, 2564872.087033335119486 ], [ 1635851.391004838049412, 2565962.332884334027767 ], [ 1635235.165859334170818, 2567621.402072750031948 ], [ 1634334.527896836400032, 2572859.323027335107327 ], [ 1633504.993138588964939, 2576011.554911833256483 ], [ 1632865.065940752625465, 2579780.013910334557295 ], [ 1632011.830114416778088, 2583429.966912250965834 ], [ 1631703.7168854996562, 2584259.501998584717512 ], [ 1630020.945972837507725, 2588336.073897916823626 ], [ 1629546.925923503935337, 2588738.990086834877729 ], [ 1627911.55714700371027, 2590753.574968419969082 ], [ 1627129.424853004515171, 2590848.378912668675184 ], [ 1624143.099132753908634, 2592649.654837667942047 ], [ 1622365.52394775301218, 2593076.273078918457031 ], [ 1620137.630109585821629, 2592649.654837667942047 ], [ 1617506.820082500576973, 2592223.036924500018358 ], [ 1614567.895842254161835, 2592341.541936833411455 ], [ 1611439.365025833249092, 2594237.622134167701006 ], [ 1609590.68696466833353, 2596512.917124252766371 ], [ 1608310.832897089421749, 2599878.458949584513903 ], [ 1607267.989838421344757, 2603883.926988501101732 ], [ 1605514.116049587726593, 2611563.050081666558981 ], [ 1604257.963050089776516, 2614004.252876419574022 ], [ 1602764.800025917589664, 2615971.435949917882681 ], [ 1600228.792958833277225, 2617440.897906001657248 ], [ 1596932.629931755363941, 2617783.981865502893925 ], [ 1595923.135887756943703, 2617702.198892585933208 ], [ 1595534.316127337515354, 2617445.743040669709444 ], [ 1595362.486090421676636, 2617244.212931919842958 ], [ 1594864.222979336977005, 2616659.831882834434509 ], [ 1593772.219914004206657, 2615882.193018168210983 ], [ 1593234.491002589464188, 2614939.098119582980871 ], [ 1593193.126912087202072, 2614500.642959751188755 ], [ 1592953.216958835721016, 2614037.367967668920755 ], [ 1592597.488995753228664, 2612018.815902419388294 ], [ 1592721.579954922199249, 2611696.179080501198769 ], [ 1592580.943097084760666, 2610645.53912141919136 ], [ 1592580.943097084760666, 2609437.717062000185251 ], [ 1592708.4740100055933, 2608440.47299350053072 ], [ 1592714.747947588562965, 2608090.223037835210562 ], [ 1592458.164143167436123, 2607760.258146584033966 ], [ 1590908.215143337845802, 2607426.404155500233173 ], [ 1588277.479919254779816, 2607889.678163334727287 ], [ 1585805.876922838389874, 2608368.016117416322231 ], [ 1580748.272864833474159, 2609138.565101251006126 ], [ 1580355.993137583136559, 2609040.496071666479111 ], [ 1578702.815997757017612, 2609040.496071666479111 ], [ 1577876.227099753916264, 2609180.595857083797455 ], [ 1575550.570005670189857, 2609222.624972499907017 ], [ 1574976.16006525605917, 2609124.555942919105291 ], [ 1572608.473855756223202, 2609054.505886167287827 ], [ 1574652.199099004268646, 2611472.751049667596817 ], [ 1576878.398058667778969, 2614168.014031834900379 ], [ 1577176.217016838490963, 2614488.169887583702803 ], [ 1578389.830075167119503, 2616632.46710816770792 ], [ 1579164.159891337156296, 2618032.217917583882809 ], [ 1579193.941984005272388, 2619573.432026751339436 ], [ 1579141.822993755340576, 2620496.67099391669035 ], [ 1579283.286949671804905, 2621851.748008169233799 ], [ 1579484.315090917050838, 2622633.52400366961956 ], [ 1579208.832046084105968, 2623862.027124084532261 ], [ 1578404.72112150490284, 2625552.15104041993618 ], [ 1577310.235121503472328, 2627480.530057668685913 ], [ 1576342.323015339672565, 2629267.445119000971317 ], [ 1573312.013131089508533, 2633168.875964418053627 ], [ 1572247.309879921376705, 2634546.289876252412796 ], [ 1571376.188918754458427, 2636191.740981668233871 ], [ 1570981.578159421682358, 2636519.342032503336668 ], [ 1570132.7940958365798, 2637889.310093086212873 ], [ 1568844.726133920252323, 2639035.913114834576845 ], [ 1568828.596901088953018, 2639029.087997250258923 ], [ 1567084.698157921433449, 2640590.341108333319426 ], [ 1561562.366026751697063, 2643600.367896668612957 ], [ 1560434.411917835474014, 2643939.956128250807524 ], [ 1557413.066910669207573, 2644070.734081916511059 ], [ 1556360.468950256705284, 2643994.274917252361774 ], [ 1555671.44211308658123, 2644164.03606066852808 ], [ 1553261.156907416880131, 2644241.786889418959618 ], [ 1552032.689876168966293, 2643961.882921669632196 ], [ 1550291.065078586339951, 2643650.877966251224279 ], [ 1546870.015162169933319, 2642329.108956251293421 ], [ 1544926.236897505819798, 2641193.942919500172138 ], [ 1543106.860943086445332, 2639918.824078667908907 ], [ 1541567.388956420123577, 2638737.007872752845287 ], [ 1536840.120851919054985, 2634569.547047585248947 ], [ 1533994.43002100288868, 2632330.314977500587702 ], [ 1532843.713162340223789, 2631319.55092291906476 ], [ 1532206.154070004820824, 2630666.441008668392897 ], [ 1530697.782086752355099, 2630168.83406425267458 ], [ 1529640.366878755390644, 2630775.293153166770935 ], [ 1528240.847040005028248, 2633434.381010834127665 ], [ 1528334.148034505546093, 2635113.805145416408777 ], [ 1528660.703155666589737, 2635860.216054167598486 ], [ 1528614.052002251148224, 2636155.669859584420919 ], [ 1529142.759934335947037, 2637275.28605866804719 ], [ 1530588.930926501750946, 2640882.937964085489511 ], [ 1533154.718117751181126, 2644506.141019500792027 ], [ 1538892.75093300640583, 2649948.719045083969831 ], [ 1539685.812010921537876, 2650104.221030667424202 ], [ 1542453.752013087272644, 2653867.374921668320894 ], [ 1542889.157966420054436, 2654738.188140667974949 ], [ 1543013.559948585927486, 2656853.017900500446558 ], [ 1542080.546066589653492, 2659232.203102752566338 ], [ 1541676.24011667072773, 2659838.660879336297512 ], [ 1539996.815982088446617, 2661518.08599816635251 ], [ 1539172.654900752007961, 2662140.094924751669168 ], [ 1538021.938042089343071, 2662808.754020500928164 ], [ 1535780.344100087881088, 2664013.82214841991663 ], [ 1533551.478151001036167, 2665033.225949499756098 ], [ 1527936.11995916813612, 2667365.759014084935188 ], [ 1526795.769877672195435, 2667296.646947585046291 ], [ 1523875.783919751644135, 2668177.826943751424551 ], [ 1522579.931852668523788, 2668350.607110001146793 ], [ 1518865.156145751476288, 2667918.655874166637659 ], [ 1518657.819946251809597, 2667210.257028501480818 ], [ 1515133.10193008929491, 2666052.629094418138266 ], [ 1514390.14705117046833, 2666018.073061168193817 ], [ 1512731.456142835319042, 2665517.010086916387081 ], [ 1511038.209857419133186, 2665793.45900908485055 ], [ 1509725.079937756061554, 2666259.965950082987547 ], [ 1506684.147043250501156, 2667970.49008808657527 ], [ 1505267.349023833870888, 2669128.118022169917822 ], [ 1504282.501912169158459, 2670683.14115883409977 ], [ 1504126.998942337930202, 2671737.100008919835091 ], [ 1506338.587038837373257, 2673274.844964917749166 ], [ 1510692.649853006005287, 2674518.862161919474602 ], [ 1511815.72109767049551, 2675054.480841334909201 ], [ 1515789.666889920830727, 2676350.332908418029547 ], [ 1518882.433998338878155, 2675607.378029502928257 ], [ 1520368.34408425539732, 2675693.767948586493731 ], [ 1521266.801933005452156, 2675780.157867666333914 ], [ 1524204.066071584820747, 2675745.602162502706051 ], [ 1525776.366076588630676, 2675693.767948586493731 ], [ 1526864.881944172084332, 2676160.274889584630728 ], [ 1529318.36194533854723, 2677473.405137334018946 ], [ 1530717.882112167775631, 2678769.256876334547997 ], [ 1531529.949057586491108, 2681084.51208833605051 ], [ 1531581.783927671611309, 2682967.817048750817776 ], [ 1531184.389053173363209, 2684090.888949584215879 ], [ 1530821.549883835017681, 2684263.669115833938122 ], [ 1529352.917978584766388, 2686440.700851000845432 ], [ 1529318.36194533854723, 2686976.319858502596617 ], [ 1527918.842106588184834, 2687995.723003417253494 ], [ 1523478.389045253396034, 2689792.638044752180576 ], [ 1522147.980944916605949, 2689965.417882919311523 ], [ 1519746.335157670080662, 2690967.544159501791 ], [ 1517258.299123249948025, 2691295.825983252376318 ], [ 1511884.832836084067822, 2691243.992097418755293 ], [ 1511280.102090172469616, 2690483.759037833660841 ], [ 1509224.016963504254818, 2690328.25705225020647 ], [ 1508757.510022506117821, 2690120.92085275053978 ], [ 1501345.237117417156696, 2689464.354908667504787 ], [ 1500239.443069167435169, 2690639.261023417115211 ], [ 1499891.775129333138466, 2691794.532006833702326 ], [ 1499997.55083642154932, 2693749.305984418839216 ], [ 1500222.164888501167297, 2694492.260863333940506 ], [ 1500403.31085167080164, 2695258.000145502388477 ], [ 1501167.378877334296703, 2696860.389001086354256 ], [ 1502204.059874840080738, 2698550.179912835359573 ], [ 1503228.647064507007599, 2700497.412895001471043 ], [ 1505918.835909835994244, 2703458.866945832967758 ], [ 1508488.078146666288376, 2707030.235131166875362 ], [ 1509193.021946750581264, 2708402.110012084245682 ], [ 1510335.099058918654919, 2711672.84100341796875 ], [ 1511064.232115089893341, 2713765.209850169718266 ], [ 1511922.738928250968456, 2718554.719956167042255 ], [ 1512033.852879256010056, 2721000.712111417204142 ], [ 1511924.27009317278862, 2721392.437049750238657 ], [ 1512006.141976669430733, 2722687.273042753338814 ], [ 1511790.755924500524998, 2725929.40205716714263 ], [ 1511337.31096525490284, 2728933.471836417913437 ], [ 1511065.244908340275288, 2730407.167051751166582 ], [ 1510929.211059667170048, 2732878.439012084156275 ], [ 1510645.808083169162273, 2735916.517909668385983 ], [ 1510487.103020004928112, 2738523.82404675334692 ], [ 1510518.394952170550823, 2739929.20312575250864 ], [ 1514451.904145501554012, 2740129.893013086169958 ], [ 1520888.110105089843273, 2738113.939039751887321 ], [ 1533035.726885922253132, 2734309.904981169849634 ], [ 1543480.395957171916962, 2739968.514070753008127 ], [ 1551731.011017583310604, 2737905.822001919150352 ], [ 1553082.065074004232883, 2737568.096955586224794 ], [ 1553891.682877339422703, 2738078.481105417013168 ], [ 1554908.865882337093353, 2738719.722933169454336 ], [ 1560388.446130506694317, 2742174.287874419242144 ], [ 1560568.112109750509262, 2742287.561926085501909 ], [ 1560889.554052166640759, 2741808.460850168019533 ], [ 1562200.469081252813339, 2739854.621910084038973 ], [ 1564799.355943836271763, 2735981.379984669387341 ], [ 1565440.446853250265121, 2735869.06787333637476 ], [ 1566846.853161171078682, 2735622.690085250884295 ], [ 1572122.823908418416977, 2734698.541999168694019 ], [ 1578113.757136501371861, 2735094.824999250471592 ], [ 1578627.108143918216228, 2735128.790154419839382 ], [ 1578789.193121589720249, 2735162.953143835067749 ], [ 1578912.107902005314827, 2735188.858931917697191 ], [ 1579907.58097667247057, 2735398.676097583025694 ], [ 1580987.186100922524929, 2737402.204898919910192 ], [ 1581575.729871340095997, 2738494.448121249675751 ], [ 1583199.773867338895798, 2741508.510990750044584 ], [ 1586580.943942256271839, 2746105.71701941639185 ], [ 1589204.854048751294613, 2748096.446961835026741 ], [ 1590578.760093584656715, 2749138.847108002752066 ], [ 1595868.57005200535059, 2753152.516902167350054 ], [ 1593897.269860751926899, 2758081.246874086558819 ], [ 1594224.274128004908562, 2763866.375067584216595 ], [ 1594443.962008833885193, 2767753.028055418282747 ], [ 1594820.67385383695364, 2774417.871024917811155 ], [ 1600317.10807091742754, 2782884.797988668084145 ], [ 1606901.845885671675205, 2788713.637052752077579 ], [ 1615677.622953504323959, 2794608.713845252990723 ], [ 1617663.23709250241518, 2803829.67801483348012 ], [ 1618080.261849001049995, 2805766.429062586277723 ], [ 1619385.647033505141735, 2811829.20991600304842 ], [ 1619767.741085588932037, 2812669.902132250368595 ], [ 1628247.326160505414009, 2823138.158098585903645 ], [ 1635840.148901335895061, 2827193.167048919945955 ], [ 1638168.305006168782711, 2828436.632081668823957 ], [ 1641465.903069756925106, 2827542.313988417387009 ], [ 1645982.530847504734993, 2827700.801860418170691 ], [ 1648133.975035421550274, 2830806.195912085473537 ], [ 1650738.858933255076408, 2832426.514849919825792 ], [ 1658314.510120503604412, 2834193.726866669952869 ], [ 1664902.743991255760193, 2829271.810857500880957 ] ] ] ] } }
]
}
