{
"type": "FeatureCollection",
"name": "HMS_USGS_gages",
"crs": { "type": "name", "properties": { "name": "urn:ogc:def:crs:EPSG::4269" } },
"features": [
{ "type": "Feature", "properties": { "SITENO": "07375280", "SITENAME": "TANGIPAHOA RIVER AT OSYKA, MS", "CATEGORY": "ST", "AGENCY": "USGS", "LONGDD": "-90.4611111", "LATDD": "31.0122222", "SITEURL": "https://waterdata.usgs.gov/nwis/inventory?agency_code=USGS&site_no=07375280" }, "geometry": { "type": "Point", "coordinates": [ -90.4611111, 31.0122222 ] } },
{ "type": "Feature", "properties": { "SITENO": "07375500", "SITENAME": "Tangipahoa River at Robert, LA", "CATEGORY": "ST", "AGENCY": "USGS", "LONGDD": "-90.3617524", "LATDD": "30.50658047", "SITEURL": "https://waterdata.usgs.gov/nwis/inventory?agency_code=USGS&site_no=07375500" }, "geometry": { "type": "Point", "coordinates": [ -90.3617524, 30.50658047 ] } },
{ "type": "Feature", "properties": { "SITENO": "07375800", "SITENAME": "Tickfaw River at Liverpool, LA", "CATEGORY": "ST", "AGENCY": "USGS", "LONGDD": "-90.6734317", "LATDD": "30.93073559", "SITEURL": "https://waterdata.usgs.gov/nwis/inventory?agency_code=USGS&site_no=07375800" }, "geometry": { "type": "Point", "coordinates": [ -90.6734317, 30.93073559 ] } },
{ "type": "Feature", "properties": { "SITENO": "07375960", "SITENAME": "Tickfaw River at Montpelier, LA", "CATEGORY": "ST", "AGENCY": "USGS", "LONGDD": "-90.6431509", "LATDD": "30.68629707", "SITEURL": "https://waterdata.usgs.gov/nwis/inventory?agency_code=USGS&site_no=07375960" }, "geometry": { "type": "Point", "coordinates": [ -90.6431509, 30.68629707 ] } },
{ "type": "Feature", "properties": { "SITENO": "07376000", "SITENAME": "Tickfaw River at Holden, LA", "CATEGORY": "ST", "AGENCY": "USGS", "LONGDD": "-90.6773163", "LATDD": "30.5038016", "SITEURL": "https://waterdata.usgs.gov/nwis/inventory?agency_code=USGS&site_no=07376000" }, "geometry": { "type": "Point", "coordinates": [ -90.6773163, 30.5038016 ] } },
{ "type": "Feature", "properties": { "SITENO": "07376500", "SITENAME": "Natalbany River at Baptist, LA", "CATEGORY": "ST", "AGENCY": "USGS", "LONGDD": "-90.545924", "LATDD": "30.50435795", "SITEURL": "https://waterdata.usgs.gov/nwis/inventory?agency_code=USGS&site_no=07376500" }, "geometry": { "type": "Point", "coordinates": [ -90.545924, 30.50435795 ] } },
{ "type": "Feature", "properties": { "SITENO": "07377300", "SITENAME": "Amite River at Magnolia, LA", "CATEGORY": "ST", "AGENCY": "USGS", "LONGDD": "-90.9806579", "LATDD": "30.5349106", "SITEURL": "https://waterdata.usgs.gov/nwis/inventory?agency_code=USGS&site_no=07377300" }, "geometry": { "type": "Point", "coordinates": [ -90.9806579, 30.5349106 ] } },
{ "type": "Feature", "properties": { "SITENO": "07377760", "SITENAME": "Comite River at Comite Dr near Baton Rouge, LA", "CATEGORY": "ST", "AGENCY": "USGS", "LONGDD": "-91.0982722", "LATDD": "30.55827126", "SITEURL": "https://waterdata.usgs.gov/nwis/inventory?agency_code=USGS&site_no=07377760" }, "geometry": { "type": "Point", "coordinates": [ -91.0982722, 30.55827126 ] } },
{ "type": "Feature", "properties": { "SITENO": "07378500", "SITENAME": "Amite River near Denham Springs, LA", "CATEGORY": "ST", "AGENCY": "USGS", "LONGDD": "-90.99038", "LATDD": "30.464079", "SITEURL": "https://waterdata.usgs.gov/nwis/inventory?agency_code=USGS&site_no=07378500" }, "geometry": { "type": "Point", "coordinates": [ -90.99038, 30.464079 ] } },
{ "type": "Feature", "properties": { "SITENO": "07380120", "SITENAME": "Amite River at Port Vincent, LA", "CATEGORY": "ST", "AGENCY": "USGS", "LONGDD": "-90.8520419", "LATDD": "30.3326939", "SITEURL": "https://waterdata.usgs.gov/nwis/inventory?agency_code=USGS&site_no=07380120" }, "geometry": { "type": "Point", "coordinates": [ -90.8520419, 30.3326939 ] } }
]
}
