{
"type": "FeatureCollection",
"name": "HWMs",
"crs": { "type": "name", "properties": { "name": "urn:ogc:def:crs:OGC:1.3:CRS84" } },
"features": [
{ "type": "Feature", "properties": { "FID_": 0, "longitude": -90.677611, "latitude": 30.055667, "Name": "Isaac" }, "geometry": { "type": "Point", "coordinates": [ -90.677611, 30.055667, 0.0 ] } },
{ "type": "Feature", "properties": { "FID_": 1, "longitude": -90.461028, "latitude": 30.056639, "Name": "Isaac" }, "geometry": { "type": "Point", "coordinates": [ -90.461028, 30.056639, 1.0 ] } },
{ "type": "Feature", "properties": { "FID_": 2, "longitude": -90.625944, "latitude": 30.057556, "Name": "Isaac" }, "geometry": { "type": "Point", "coordinates": [ -90.625944, 30.057556, 2.0 ] } },
{ "type": "Feature", "properties": { "FID_": 3, "longitude": -90.635722, "latitude": 30.057778, "Name": "Isaac" }, "geometry": { "type": "Point", "coordinates": [ -90.635722, 30.057778, 3.0 ] } },
{ "type": "Feature", "properties": { "FID_": 4, "longitude": -90.686889, "latitude": 30.0685, "Name": "Isaac" }, "geometry": { "type": "Point", "coordinates": [ -90.686889, 30.0685, 4.0 ] } },
{ "type": "Feature", "properties": { "FID_": 5, "longitude": -90.458722, "latitude": 30.069222, "Name": "Isaac" }, "geometry": { "type": "Point", "coordinates": [ -90.458722, 30.069222, 5.0 ] } },
{ "type": "Feature", "properties": { "FID_": 6, "longitude": -90.682472, "latitude": 30.071972, "Name": "Isaac" }, "geometry": { "type": "Point", "coordinates": [ -90.682472, 30.071972, 6.0 ] } },
{ "type": "Feature", "properties": { "FID_": 7, "longitude": -90.597528, "latitude": 30.075944, "Name": "Isaac" }, "geometry": { "type": "Point", "coordinates": [ -90.597528, 30.075944, 7.0 ] } },
{ "type": "Feature", "properties": { "FID_": 8, "longitude": -90.572306, "latitude": 30.076389, "Name": "Isaac" }, "geometry": { "type": "Point", "coordinates": [ -90.572306, 30.076389, 8.0 ] } },
{ "type": "Feature", "properties": { "FID_": 9, "longitude": -90.54957, "latitude": 30.07714, "Name": "Isaac" }, "geometry": { "type": "Point", "coordinates": [ -90.54957, 30.07714, 9.0 ] } },
{ "type": "Feature", "properties": { "FID_": 10, "longitude": -90.572583, "latitude": 30.077944, "Name": "Isaac" }, "geometry": { "type": "Point", "coordinates": [ -90.572583, 30.077944, 10.0 ] } },
{ "type": "Feature", "properties": { "FID_": 11, "longitude": -90.524833, "latitude": 30.081306, "Name": "Isaac" }, "geometry": { "type": "Point", "coordinates": [ -90.524833, 30.081306, 11.0 ] } },
{ "type": "Feature", "properties": { "FID_": 12, "longitude": -90.46706, "latitude": 30.08213, "Name": "Isaac" }, "geometry": { "type": "Point", "coordinates": [ -90.46706, 30.08213, 12.0 ] } },
{ "type": "Feature", "properties": { "FID_": 13, "longitude": -90.5113, "latitude": 30.08327, "Name": "Isaac" }, "geometry": { "type": "Point", "coordinates": [ -90.5113, 30.08327, 13.0 ] } },
{ "type": "Feature", "properties": { "FID_": 14, "longitude": -90.487, "latitude": 30.084694, "Name": "Isaac" }, "geometry": { "type": "Point", "coordinates": [ -90.487, 30.084694, 14.0 ] } },
{ "type": "Feature", "properties": { "FID_": 15, "longitude": -90.44424, "latitude": 30.0859, "Name": "Isaac" }, "geometry": { "type": "Point", "coordinates": [ -90.44424, 30.0859, 15.0 ] } },
{ "type": "Feature", "properties": { "FID_": 16, "longitude": -90.44575, "latitude": 30.08688, "Name": "Isaac" }, "geometry": { "type": "Point", "coordinates": [ -90.44575, 30.08688, 16.0 ] } },
{ "type": "Feature", "properties": { "FID_": 17, "longitude": -90.482167, "latitude": 30.08775, "Name": "Isaac" }, "geometry": { "type": "Point", "coordinates": [ -90.482167, 30.08775, 17.0 ] } },
{ "type": "Feature", "properties": { "FID_": 18, "longitude": -90.50597, "latitude": 30.0883, "Name": "Isaac" }, "geometry": { "type": "Point", "coordinates": [ -90.50597, 30.0883, 18.0 ] } },
{ "type": "Feature", "properties": { "FID_": 19, "longitude": -90.50602, "latitude": 30.08883, "Name": "Isaac" }, "geometry": { "type": "Point", "coordinates": [ -90.50602, 30.08883, 19.0 ] } },
{ "type": "Feature", "properties": { "FID_": 20, "longitude": -90.488528, "latitude": 30.0945, "Name": "Isaac" }, "geometry": { "type": "Point", "coordinates": [ -90.488528, 30.0945, 20.0 ] } },
{ "type": "Feature", "properties": { "FID_": 21, "longitude": -90.493972, "latitude": 30.095361, "Name": "Isaac" }, "geometry": { "type": "Point", "coordinates": [ -90.493972, 30.095361, 21.0 ] } },
{ "type": "Feature", "properties": { "FID_": 22, "longitude": -90.10686, "latitude": 30.36994, "Name": "Isaac" }, "geometry": { "type": "Point", "coordinates": [ -90.10686, 30.36994, 22.0 ] } },
{ "type": "Feature", "properties": { "FID_": 23, "longitude": -90.15698, "latitude": 30.39932, "Name": "Isaac" }, "geometry": { "type": "Point", "coordinates": [ -90.15698, 30.39932, 23.0 ] } },
{ "type": "Feature", "properties": { "FID_": 24, "longitude": -90.151361, "latitude": 30.404639, "Name": "Isaac" }, "geometry": { "type": "Point", "coordinates": [ -90.151361, 30.404639, 24.0 ] } },
{ "type": "Feature", "properties": { "FID_": 25, "longitude": -90.15576, "latitude": 30.40633, "Name": "Isaac" }, "geometry": { "type": "Point", "coordinates": [ -90.15576, 30.40633, 25.0 ] } },
{ "type": "Feature", "properties": { "FID_": 26, "longitude": -90.336, "latitude": 30.2964, "Name": "Katrina" }, "geometry": { "type": "Point", "coordinates": [ -90.336, 30.2964, 26.0 ] } },
{ "type": "Feature", "properties": { "FID_": 27, "longitude": -90.4241, "latitude": 30.1066, "Name": "Katrina" }, "geometry": { "type": "Point", "coordinates": [ -90.4241, 30.1066, 27.0 ] } },
{ "type": "Feature", "properties": { "FID_": 28, "longitude": -90.3999, "latitude": 30.2812, "Name": "Katrina" }, "geometry": { "type": "Point", "coordinates": [ -90.3999, 30.2812, 28.0 ] } },
{ "type": "Feature", "properties": { "FID_": 29, "longitude": -90.4241, "latitude": 30.1067, "Name": "Katrina" }, "geometry": { "type": "Point", "coordinates": [ -90.4241, 30.1067, 29.0 ] } },
{ "type": "Feature", "properties": { "FID_": 30, "longitude": -90.4246, "latitude": 30.1077, "Name": "Katrina" }, "geometry": { "type": "Point", "coordinates": [ -90.4246, 30.1077, 30.0 ] } },
{ "type": "Feature", "properties": { "FID_": 31, "longitude": -90.15297, "latitude": 30.400375, "Name": "Katrina" }, "geometry": { "type": "Point", "coordinates": [ -90.15297, 30.400375, 31.0 ] } },
{ "type": "Feature", "properties": { "FID_": 32, "longitude": -90.6462, "latitude": 30.262079, "Name": "Katrina" }, "geometry": { "type": "Point", "coordinates": [ -90.6462, 30.262079, 32.0 ] } },
{ "type": "Feature", "properties": { "FID_": 33, "longitude": -90.64758, "latitude": 30.261999, "Name": "Katrina" }, "geometry": { "type": "Point", "coordinates": [ -90.64758, 30.261999, 33.0 ] } },
{ "type": "Feature", "properties": { "FID_": 34, "longitude": -90.60236, "latitude": 30.310067, "Name": "Katrina" }, "geometry": { "type": "Point", "coordinates": [ -90.60236, 30.310067, 34.0 ] } },
{ "type": "Feature", "properties": { "FID_": 35, "longitude": -90.11628, "latitude": 30.437713, "Name": "Katrina" }, "geometry": { "type": "Point", "coordinates": [ -90.11628, 30.437713, 35.0 ] } },
{ "type": "Feature", "properties": { "FID_": 36, "longitude": -90.20524, "latitude": 30.389975, "Name": "Katrina" }, "geometry": { "type": "Point", "coordinates": [ -90.20524, 30.389975, 36.0 ] } },
{ "type": "Feature", "properties": { "FID_": 37, "longitude": -90.16853, "latitude": 30.410498, "Name": "Katrina" }, "geometry": { "type": "Point", "coordinates": [ -90.16853, 30.410498, 37.0 ] } },
{ "type": "Feature", "properties": { "FID_": 38, "longitude": -90.20932, "latitude": 30.387738, "Name": "Katrina" }, "geometry": { "type": "Point", "coordinates": [ -90.20932, 30.387738, 38.0 ] } },
{ "type": "Feature", "properties": { "FID_": 39, "longitude": -90.646197, "latitude": 30.262079, "Name": "Katrina" }, "geometry": { "type": "Point", "coordinates": [ -90.646197, 30.262079, 39.0 ] } },
{ "type": "Feature", "properties": { "FID_": 40, "longitude": -90.323376, "latitude": 30.404156, "Name": "Katrina" }, "geometry": { "type": "Point", "coordinates": [ -90.323376, 30.404156, 40.0 ] } },
{ "type": "Feature", "properties": { "FID_": 41, "longitude": -90.262036, "latitude": 30.405803, "Name": "Katrina" }, "geometry": { "type": "Point", "coordinates": [ -90.262036, 30.405803, 41.0 ] } },
{ "type": "Feature", "properties": { "FID_": 42, "longitude": -90.427146, "latitude": 30.101352, "Name": "Katrina" }, "geometry": { "type": "Point", "coordinates": [ -90.427146, 30.101352, 42.0 ] } },
{ "type": "Feature", "properties": { "FID_": 43, "longitude": -90.155788, "latitude": 30.398989, "Name": "Katrina" }, "geometry": { "type": "Point", "coordinates": [ -90.155788, 30.398989, 43.0 ] } },
{ "type": "Feature", "properties": { "FID_": 44, "longitude": -90.205244, "latitude": 30.389975, "Name": "Katrina" }, "geometry": { "type": "Point", "coordinates": [ -90.205244, 30.389975, 44.0 ] } },
{ "type": "Feature", "properties": { "FID_": 45, "longitude": -90.121701, "latitude": 30.396049, "Name": "Katrina" }, "geometry": { "type": "Point", "coordinates": [ -90.121701, 30.396049, 45.0 ] } },
{ "type": "Feature", "properties": { "FID_": 46, "longitude": -90.104286, "latitude": 30.419672, "Name": "Katrina" }, "geometry": { "type": "Point", "coordinates": [ -90.104286, 30.419672, 46.0 ] } },
{ "type": "Feature", "properties": { "FID_": 47, "longitude": -90.140448, "latitude": 30.409188, "Name": "Katrina" }, "geometry": { "type": "Point", "coordinates": [ -90.140448, 30.409188, 47.0 ] } },
{ "type": "Feature", "properties": { "FID_": 48, "longitude": -90.158156, "latitude": 30.404488, "Name": "Katrina" }, "geometry": { "type": "Point", "coordinates": [ -90.158156, 30.404488, 48.0 ] } },
{ "type": "Feature", "properties": { "FID_": 49, "longitude": -90.168527, "latitude": 30.410498, "Name": "Katrina" }, "geometry": { "type": "Point", "coordinates": [ -90.168527, 30.410498, 49.0 ] } },
{ "type": "Feature", "properties": { "FID_": 50, "longitude": -90.162145, "latitude": 30.409486, "Name": "Katrina" }, "geometry": { "type": "Point", "coordinates": [ -90.162145, 30.409486, 50.0 ] } },
{ "type": "Feature", "properties": { "FID_": 51, "longitude": -90.159872, "latitude": 30.413102, "Name": "Katrina" }, "geometry": { "type": "Point", "coordinates": [ -90.159872, 30.413102, 51.0 ] } },
{ "type": "Feature", "properties": { "FID_": 52, "longitude": -90.155311, "latitude": 30.406241, "Name": "Katrina" }, "geometry": { "type": "Point", "coordinates": [ -90.155311, 30.406241, 52.0 ] } },
{ "type": "Feature", "properties": { "FID_": 53, "longitude": -90.152972, "latitude": 30.400375, "Name": "Katrina" }, "geometry": { "type": "Point", "coordinates": [ -90.152972, 30.400375, 53.0 ] } },
{ "type": "Feature", "properties": { "FID_": 54, "longitude": -90.135863, "latitude": 30.415975, "Name": "Katrina" }, "geometry": { "type": "Point", "coordinates": [ -90.135863, 30.415975, 54.0 ] } },
{ "type": "Feature", "properties": { "FID_": 55, "longitude": -90.130998, "latitude": 30.402588, "Name": "Katrina" }, "geometry": { "type": "Point", "coordinates": [ -90.130998, 30.402588, 55.0 ] } },
{ "type": "Feature", "properties": { "FID_": 56, "longitude": -90.11085, "latitude": 30.36671, "Name": "Katrina" }, "geometry": { "type": "Point", "coordinates": [ -90.11085, 30.36671, 56.0 ] } },
{ "type": "Feature", "properties": { "FID_": 57, "longitude": -90.158482, "latitude": 30.401321, "Name": "Katrina" }, "geometry": { "type": "Point", "coordinates": [ -90.158482, 30.401321, 57.0 ] } },
{ "type": "Feature", "properties": { "FID_": 58, "longitude": -90.68525556, "latitude": 30.22833139, "Name": "Gustav" }, "geometry": { "type": "Point", "coordinates": [ -90.68525556, 30.22833139, 58.0 ] } },
{ "type": "Feature", "properties": { "FID_": 59, "longitude": -90.325165, "latitude": 30.30396389, "Name": "Gustav" }, "geometry": { "type": "Point", "coordinates": [ -90.325165, 30.30396389, 59.0 ] } },
{ "type": "Feature", "properties": { "FID_": 60, "longitude": -90.38701722, "latitude": 30.27717278, "Name": "Gustav" }, "geometry": { "type": "Point", "coordinates": [ -90.38701722, 30.27717278, 60.0 ] } },
{ "type": "Feature", "properties": { "FID_": 61, "longitude": -90.38869472, "latitude": 30.30562694, "Name": "Gustav" }, "geometry": { "type": "Point", "coordinates": [ -90.38869472, 30.30562694, 61.0 ] } },
{ "type": "Feature", "properties": { "FID_": 62, "longitude": -90.53439167000001, "latitude": 30.13387889, "Name": "Gustav" }, "geometry": { "type": "Point", "coordinates": [ -90.53439167, 30.13387889, 62.0 ] } },
{ "type": "Feature", "properties": { "FID_": 63, "longitude": -90.44598417, "latitude": 30.12554944, "Name": "Gustav" }, "geometry": { "type": "Point", "coordinates": [ -90.44598417, 30.12554944, 63.0 ] } },
{ "type": "Feature", "properties": { "FID_": 64, "longitude": -90.53736111000001, "latitude": 30.16555972, "Name": "Gustav" }, "geometry": { "type": "Point", "coordinates": [ -90.53736111, 30.16555972, 64.0 ] } },
{ "type": "Feature", "properties": { "FID_": 65, "longitude": -90.54306972000001, "latitude": 30.09313472, "Name": "Gustav" }, "geometry": { "type": "Point", "coordinates": [ -90.54306972, 30.09313472, 65.0 ] } },
{ "type": "Feature", "properties": { "FID_": 66, "longitude": -90.63931139, "latitude": 30.22043917, "Name": "Gustav" }, "geometry": { "type": "Point", "coordinates": [ -90.63931139, 30.22043917, 66.0 ] } },
{ "type": "Feature", "properties": { "FID_": 67, "longitude": -90.64080778, "latitude": 30.12806861, "Name": "Gustav" }, "geometry": { "type": "Point", "coordinates": [ -90.64080778, 30.12806861, 67.0 ] } },
{ "type": "Feature", "properties": { "FID_": 68, "longitude": -90.58074139, "latitude": 30.1316025, "Name": "Gustav" }, "geometry": { "type": "Point", "coordinates": [ -90.58074139, 30.1316025, 68.0 ] } },
{ "type": "Feature", "properties": { "FID_": 69, "longitude": -90.56146694, "latitude": 30.16085972, "Name": "Gustav" }, "geometry": { "type": "Point", "coordinates": [ -90.56146694, 30.16085972, 69.0 ] } },
{ "type": "Feature", "properties": { "FID_": 70, "longitude": -90.65792417, "latitude": 30.15292028, "Name": "Gustav" }, "geometry": { "type": "Point", "coordinates": [ -90.65792417, 30.15292028, 70.0 ] } },
{ "type": "Feature", "properties": { "FID_": 71, "longitude": -90.25937778, "latitude": 30.39610222, "Name": "Gustav" }, "geometry": { "type": "Point", "coordinates": [ -90.25937778, 30.39610222, 71.0 ] } },
{ "type": "Feature", "properties": { "FID_": 72, "longitude": -90.60129083, "latitude": 30.19281361, "Name": "Gustav" }, "geometry": { "type": "Point", "coordinates": [ -90.60129083, 30.19281361, 72.0 ] } },
{ "type": "Feature", "properties": { "FID_": 73, "longitude": -90.63173944, "latitude": 30.10149306, "Name": "Gustav" }, "geometry": { "type": "Point", "coordinates": [ -90.63173944, 30.10149306, 73.0 ] } },
{ "type": "Feature", "properties": { "FID_": 74, "longitude": -90.63386694, "latitude": 30.15843306, "Name": "Gustav" }, "geometry": { "type": "Point", "coordinates": [ -90.63386694, 30.15843306, 74.0 ] } },
{ "type": "Feature", "properties": { "FID_": 75, "longitude": -90.6833775, "latitude": 30.18347444, "Name": "Gustav" }, "geometry": { "type": "Point", "coordinates": [ -90.6833775, 30.18347444, 75.0 ] } },
{ "type": "Feature", "properties": { "FID_": 76, "longitude": -90.25885444, "latitude": 30.376105, "Name": "Gustav" }, "geometry": { "type": "Point", "coordinates": [ -90.25885444, 30.376105, 76.0 ] } }
]
}
