{
"type": "FeatureCollection",
"name": "Lake_Maurepas",
"crs": { "type": "name", "properties": { "name": "urn:ogc:def:crs:EPSG::3857" } },
"features": [
{ "type": "Feature", "properties": { "SUBSEGMENT": "040602", "NAME": "Lake Maurepas", "DESCRIPTIO": "Lake Maurepas", "BASIN": "PONTCHARTRAIN", "Shape__Are": 318247442.29799998, "Shape__Len": 75015.022059499999 }, "geometry": { "type": "MultiPolygon", "coordinates": [ [ [ [ -10066214.5175, 3544904.406700000166893 ], [ -10066096.9997, 3544829.491099998354912 ], [ -10065988.3434, 3544741.518100000917912 ], [ -10065914.6641, 3544652.482799999415874 ], [ -10065756.3004, 3544474.973999999463558 ], [ -10065641.8396, 3544290.79169999808073 ], [ -10065532.9485, 3544187.925599999725819 ], [ -10065296.4289, 3543889.994400002062321 ], [ -10065161.2938, 3543684.060999996960163 ], [ -10065107.0308, 3543555.811700001358986 ], [ -10065046.3242, 3543385.079999998211861 ], [ -10065146.8214, 3543280.728699997067451 ], [ -10065211.5416, 3543218.009800001978874 ], [ -10065403.8839, 3543181.585799999535084 ], [ -10065549.2105, 3543105.704800002276897 ], [ -10065689.5244, 3543046.688100002706051 ], [ -10065754.5574, 3542913.6118 ], [ -10065858.0727, 3542690.585699997842312 ], [ -10065926.3877, 3542622.132600001990795 ], [ -10066062.0586, 3542522.419100001454353 ], [ -10066257.2403, 3542374.9846 ], [ -10066399.4909, 3542239.832999996840954 ], [ -10066435.2432, 3542116.793799996376038 ], [ -10066250.4474, 3541906.62950000166893 ], [ -10066109.4349, 3541843.407899998128414 ], [ -10065937.2171, 3541706.909599997103214 ], [ -10065810.7489, 3541558.313199996948242 ], [ -10065677.5963, 3541439.450599998235703 ], [ -10065594.1095, 3541406.37950000166893 ], [ -10065473.4598, 3541353.853200003504753 ], [ -10065367.517, 3541300.847699999809265 ], [ -10065255.8027, 3541237.012000001966953 ], [ -10065146.0503, 3541178.569200001657009 ], [ -10065045.1571, 3541107.07209999859333 ], [ -10064879.5933, 3541014.906900003552437 ], [ -10064672.696, 3540970.050999999046326 ], [ -10064582.3527, 3540953.911399997770786 ], [ -10064465.6183, 3540917.862400002777576 ], [ -10064316.4359, 3540817.92849999666214 ], [ -10064187.855, 3540743.232900001108646 ], [ -10064033.7306, 3540667.485799998044968 ], [ -10063888.8922, 3540600.671099998056889 ], [ -10063690.7033, 3540366.700900003314018 ], [ -10063565.0575, 3540173.585600003600121 ], [ -10063482.92, 3539949.729599997401237 ], [ -10063418.2943, 3539769.880900003015995 ], [ -10063398.5184, 3539622.226400002837181 ], [ -10063428.8913, 3539497.47070000320673 ], [ -10063529.0273, 3539291.187799997627735 ], [ -10063661.9744, 3539071.360500000417233 ], [ -10063791.7942, 3538790.425700001418591 ], [ -10063930.5335, 3538666.536200001835823 ], [ -10064034.9971, 3538569.530599996447563 ], [ -10064223.0984, 3538431.542599998414516 ], [ -10064400.9822, 3538330.753300003707409 ], [ -10064630.0026, 3538301.005500003695488 ], [ -10064812.722, 3538252.057300001382828 ], [ -10064865.276, 3538224.892099998891354 ], [ -10065035.1124, 3538090.894900001585484 ], [ -10065289.5927, 3537799.4441 ], [ -10065520.865, 3537623.368699997663498 ], [ -10065710.7899, 3537485.292199999094009 ], [ -10065974.3731, 3537112.0929000005126 ], [ -10066071.836, 3537031.892200000584126 ], [ -10066201.1014, 3536895.455799996852875 ], [ -10066295.0556, 3536744.962600000202656 ], [ -10066356.3128, 3536608.258000001311302 ], [ -10066387.9511, 3536374.282700002193451 ], [ -10066401.3773, 3536075.849600002169609 ], [ -10066430.2039, 3535884.478500001132488 ], [ -10066479.0367, 3535754.82209999859333 ], [ -10066456.6814, 3535412.004000000655651 ], [ -10066472.4169, 3535272.882700003683567 ], [ -10066498.5116, 3535027.997100003063679 ], [ -10066527.9552, 3534695.906700000166893 ], [ -10066560.959, 3534354.490500003099442 ], [ -10066623.4712, 3534022.354400001466274 ], [ -10066697.1003, 3533704.773900002241135 ], [ -10066788.8401, 3533342.636 ], [ -10066892.6467, 3533163.8147 ], [ -10066981.6596, 3532927.832699999213219 ], [ -10067128.6107, 3532572.776299998164177 ], [ -10067234.3075, 3532386.45269999653101 ], [ -10067381.6207, 3532061.046899996697903 ], [ -10067526.7993, 3531717.008400000631809 ], [ -10067634.0359, 3531471.699500001966953 ], [ -10067789.2152, 3531253.621200002729893 ], [ -10068008.7797, 3531020.26799999922514 ], [ -10068162.5373, 3530865.253799997270107 ], [ -10068295.9933, 3530702.924599997699261 ], [ -10068592.6198, 3530419.023800000548363 ], [ -10068735.1564, 3530258.527400001883507 ], [ -10068850.1802, 3530092.647900000214577 ], [ -10069045.4049, 3529792.872699998319149 ], [ -10069081.5777, 3529699.926600001752377 ], [ -10069163.291, 3529508.4397 ], [ -10069207.6238, 3529235.717699997127056 ], [ -10069281.3176, 3528936.8257 ], [ -10069342.2606, 3528686.214199997484684 ], [ -10069495.3133, 3528399.687100000679493 ], [ -10069676.2192, 3528196.269400000572205 ], [ -10069861.0916, 3528016.988799996674061 ], [ -10070225.552, 3527708.371899999678135 ], [ -10070441.6487, 3527538.034999996423721 ], [ -10070685.9318, 3527436.048900000751019 ], [ -10071025.3482, 3527244.416500002145767 ], [ -10071399.5932, 3527050.532899998128414 ], [ -10071538.96, 3526962.340000003576279 ], [ -10072292.8255, 3526518.122100003063679 ], [ -10072347.6198, 3526465.43469999730587 ], [ -10072412.9509, 3526375.913500003516674 ], [ -10072542.4111, 3526251.428000003099442 ], [ -10072617.3864, 3526134.829899996519089 ], [ -10072751.4948, 3526210.58330000191927 ], [ -10072886.2039, 3526259.057599999010563 ], [ -10073150.368, 3526183.039200000464916 ], [ -10073370.0907, 3526069.643100000917912 ], [ -10073553.4226, 3525964.536300003528595 ], [ -10073726.3114, 3525922.875200003385544 ], [ -10073937.7737, 3525772.901199996471405 ], [ -10074185.0209, 3525641.908399999141693 ], [ -10074747.7109, 3525572.444799996912479 ], [ -10075183.147, 3525527.448299996554852 ], [ -10075626.4419, 3525537.189800001680851 ], [ -10075914.7567, 3525598.097999997437 ], [ -10076114.1836, 3525584.277199998497963 ], [ -10076333.2812, 3525498.109899997711182 ], [ -10076615.3101, 3525431.50959999859333 ], [ -10077031.662, 3525431.51519999653101 ], [ -10077648.0276, 3525390.384700000286102 ], [ -10078120.8162, 3525291.520400002598763 ], [ -10078727.7372, 3525268.32490000128746 ], [ -10079687.2917, 3525261.830399997532368 ], [ -10080157.7317, 3525271.999200001358986 ], [ -10080626.0388, 3525382.16889999806881 ], [ -10081410.2318, 3525535.505199998617172 ], [ -10081949.3955, 3525719.928400002419949 ], [ -10082397.3294, 3525938.766999997198582 ], [ -10083077.4427, 3526308.117399998009205 ], [ -10083397.9775, 3526560.599299997091293 ], [ -10083814.9856, 3526960.7029 ], [ -10084088.7751, 3527284.970799997448921 ], [ -10084221.0551, 3527451.556699998676777 ], [ -10084325.8086, 3527635.755000002682209 ], [ -10084464.6545, 3527920.765799999237061 ], [ -10084549.4022, 3528195.532499998807907 ], [ -10084741.9818, 3528508.992899999022484 ], [ -10084826.5474, 3528792.8662 ], [ -10084893.0165, 3529076.361100003123283 ], [ -10084960.2531, 3529323.479400001466274 ], [ -10084971.852, 3529633.120300002396107 ], [ -10085029.4681, 3529907.345100000500679 ], [ -10085022.2017, 3530253.000900000333786 ], [ -10084948.4568, 3530315.137500002980232 ], [ -10084796.1242, 3530239.097599998116493 ], [ -10084758.964, 3530283.809600003063679 ], [ -10084773.8115, 3530438.833099998533726 ], [ -10084834.4884, 3530567.530599996447563 ], [ -10084951.624, 3530685.428400002419949 ], [ -10084818.52, 3530692.264300003647804 ], [ -10084702.8828, 3530709.792000003159046 ], [ -10084209.6153, 3530635.619499996304512 ], [ -10084154.3527, 3530608.181199997663498 ], [ -10084045.6345, 3530560.781499996781349 ], [ -10083865.5526, 3530580.645700000226498 ], [ -10083621.327, 3530621.33219999819994 ], [ -10083372.2097, 3530751.148999996483326 ], [ -10083139.1791, 3530830.75959999859333 ], [ -10082906.333, 3530928.845299996435642 ], [ -10082750.909, 3531050.547399997711182 ], [ -10082631.2297, 3531312.921999998390675 ], [ -10082613.8173, 3531474.303300000727177 ], [ -10082602.4243, 3531706.119199998676777 ], [ -10082563.4321, 3531936.3015 ], [ -10082555.1215, 3532071.855099998414516 ], [ -10082512.2118, 3532263.145999997854233 ], [ -10082458.3833, 3532467.568999998271465 ], [ -10082411.4398, 3532619.963899999856949 ], [ -10082458.7203, 3532832.953100003302097 ], [ -10082573.8356, 3533004.51690000295639 ], [ -10082653.3718, 3533076.30120000243187 ], [ -10082915.5671, 3533248.576800003647804 ], [ -10083052.2313, 3533342.270700000226498 ], [ -10083214.109, 3533643.3783999979496 ], [ -10083290.8944, 3533872.820900000631809 ], [ -10083520.6175, 3534138.080700002610683 ], [ -10083611.7434, 3534291.357100002467632 ], [ -10083753.295, 3534570.428000003099442 ], [ -10083811.0466, 3534699.749399997293949 ], [ -10083866.0162, 3534955.360600002110004 ], [ -10083878.2522, 3535137.06700000166893 ], [ -10083814.977, 3535586.374099999666214 ], [ -10083768.4853, 3535755.792499996721745 ], [ -10083794.0956, 3535835.500500001013279 ], [ -10083797.5855, 3535900.207299999892712 ], [ -10083795.6398, 3535959.450099997222424 ], [ -10083786.0698, 3536100.2522 ], [ -10083780.251, 3536216.839500002563 ], [ -10083763.2309, 3536387.244400002062321 ], [ -10083760.9558, 3536505.770599998533726 ], [ -10083750.9945, 3536779.910899996757507 ], [ -10083730.3945, 3536928.041799999773502 ], [ -10083701.9574, 3537222.489699997007847 ], [ -10083649.8317, 3537444.590300001204014 ], [ -10083582.9581, 3537598.249799996614456 ], [ -10083538.5431, 3537696.353299997746944 ], [ -10083525.3723, 3537761.1787 ], [ -10083432.8052, 3537942.543499998748302 ], [ -10083401.2033, 3538003.602700002491474 ], [ -10083380.6006, 3538140.702299997210503 ], [ -10083278.5582, 3538386.8618 ], [ -10083259.8918, 3538497.961800001561642 ], [ -10083222.5157, 3538623.894199997186661 ], [ -10083176.4055, 3538703.481499999761581 ], [ -10083106.0316, 3538803.360699996352196 ], [ -10083004.2148, 3538934.774400003254414 ], [ -10082996.6022, 3539069.9529 ], [ -10082933.8263, 3539062.444200001657009 ], [ -10082861.6298, 3539177.169699996709824 ], [ -10082796.7466, 3539317.864500001072884 ], [ -10082772.5363, 3539390.1338 ], [ -10082681.945, 3539499.233300000429153 ], [ -10082619.0973, 3539565.789700001478195 ], [ -10082500.7733, 3539673.131700001657009 ], [ -10082399.3271, 3539721.184199996292591 ], [ -10082340.1142, 3539758.167999997735023 ], [ -10082281.0159, 3539795.152900002896786 ], [ -10082227.3906, 3539841.32599999755621 ], [ -10082127.657, 3539939.297799997031689 ], [ -10082014.7466, 3540080.010899998247623 ], [ -10081948.0956, 3540183.579300001263618 ], [ -10081901.7025, 3540259.443899996578693 ], [ -10081820.2644, 3540388.97410000115633 ], [ -10081759.1356, 3540466.731899999082088 ], [ -10081703.5451, 3540577.749099999666214 ], [ -10081631.4113, 3540677.713699996471405 ], [ -10081583.3209, 3540746.216499999165535 ], [ -10081527.6669, 3540822.11540000140667 ], [ -10081446.2396, 3540918.274599999189377 ], [ -10081396.2062, 3541007.203299999237061 ], [ -10081325.9639, 3541099.649700000882149 ], [ -10081255.7225, 3541186.631700001657009 ], [ -10081185.316, 3541292.100199997425079 ], [ -10081153.8103, 3541353.170999996364117 ], [ -10081125.8581, 3541469.907999999821186 ], [ -10081106.968, 3541590.329800002276897 ], [ -10081132.6977, 3541653.336099997162819 ], [ -10081161.9066, 3541770.147100001573563 ], [ -10081148.629, 3541855.339599996805191 ], [ -10081152.0909, 3541942.404200002551079 ], [ -10081140.8683, 3542007.289899997413158 ], [ -10081142.533, 3542070.127400003373623 ], [ -10081151.3675, 3542198.13120000064373 ], [ -10081158.4418, 3542311.096400000154972 ], [ -10081132.4517, 3542368.454000003635883 ], [ -10081071.3033, 3542457.267700001597404 ], [ -10081017.6927, 3542512.865099996328354 ], [ -10080953.0835, 3542514.608900003135204 ], [ -10080894.2342, 3542495.890600003302097 ], [ -10080814.9815, 3542468.125 ], [ -10080696.9991, 3542454.873099997639656 ], [ -10080569.7956, 3542439.907999999821186 ], [ -10080409.5313, 3542374.797700002789497 ], [ -10080306.3594, 3542361.629699997603893 ], [ -10080186.0854, 3542428.34009999781847 ], [ -10080072.0055, 3542411.211999997496605 ], [ -10079935.5034, 3542403.598800003528595 ], [ -10079738.2453, 3542406.9934 ], [ -10079636.7366, 3542445.727600000798702 ], [ -10079483.3666, 3542512.176899999380112 ], [ -10079389.1414, 3542556.532799996435642 ], [ -10079274.7201, 3542635.923299998044968 ], [ -10079108.3029, 3542759.88740000128746 ], [ -10078991.8095, 3542870.86540000140667 ], [ -10078904.6811, 3543020.632100000977516 ], [ -10078638.2581, 3543263.027800001204014 ], [ -10078397.9867, 3543451.559000000357628 ], [ -10078346.1986, 3543523.821000002324581 ], [ -10078298.0475, 3543588.486400000751019 ], [ -10078240.4593, 3543677.371500000357628 ], [ -10078177.6078, 3543742.064999997615814 ], [ -10078048.0745, 3543877.1831 ], [ -10077953.6884, 3544008.533100001513958 ], [ -10077905.4718, 3544097.391999997198582 ], [ -10077773.9546, 3544243.633699998259544 ], [ -10077679.7176, 3544330.4391999989748 ], [ -10077607.4692, 3544411.90990000218153 ], [ -10077459.5884, 3544517.197999998927116 ], [ -10077393.202, 3544552.384199999272823 ], [ -10077254.3221, 3544685.436599999666214 ], [ -10077117.4687, 3544831.677400000393391 ], [ -10077006.5245, 3544909.27419999986887 ], [ -10076915.9284, 3544966.4949000030756 ], [ -10076845.5648, 3545046.027800001204014 ], [ -10076788.2204, 3545107.002599999308586 ], [ -10076719.7582, 3545168.198899999260902 ], [ -10076605.2191, 3545245.830600000917912 ], [ -10076568.1744, 3545299.342000000178814 ], [ -10076469.9821, 3545386.290200002491474 ], [ -10076383.0794, 3545486.282300002872944 ], [ -10076281.3566, 3545554.540100000798702 ], [ -10076192.581, 3545634.133199997246265 ], [ -10076135.3261, 3545674.751800000667572 ], [ -10076065.014, 3545730.321800000965595 ], [ -10076016.9382, 3545774.632600001990795 ], [ -10075902.2734, 3545852.258400000631809 ], [ -10075846.7466, 3545898.498800002038479 ], [ -10075789.3968, 3545954.004900000989437 ], [ -10075728.1543, 3546044.673799999058247 ], [ -10075576.6785, 3546122.184199996292591 ], [ -10075499.0718, 3546177.593000002205372 ], [ -10075425.1773, 3546222.029899999499321 ], [ -10075365.803, 3546295.871699996292591 ], [ -10075279.0249, 3546336.534299999475479 ], [ -10075168.1309, 3546415.986100003123283 ], [ -10075134.6844, 3546484.467100001871586 ], [ -10075058.7565, 3546552.940700002014637 ], [ -10074947.9294, 3546602.725299999117851 ], [ -10074874.0611, 3546619.357299998402596 ], [ -10074776.2809, 3546665.3574 ], [ -10074683.6809, 3546733.809600003063679 ], [ -10074615.277, 3546765.103399999439716 ], [ -10074552.4026, 3546850.384199999272823 ], [ -10074463.6811, 3546900.190600000321865 ], [ -10074468.0532, 3546975.327399998903275 ], [ -10074340.7563, 3547121.307499997317791 ], [ -10074119.4236, 3547252.9868 ], [ -10073829.1243, 3547425.364200003445148 ], [ -10073538.0106, 3547560.720499999821186 ], [ -10073294.0103, 3547748.545000001788139 ], [ -10072954.7937, 3547870.254199996590614 ], [ -10072737.3073, 3547931.3772 ], [ -10072552.1048, 3547956.449100002646446 ], [ -10072145.8427, 3547963.200199998915195 ], [ -10071971.0667, 3547956.500100001692772 ], [ -10071802.3043, 3547897.808600001037121 ], [ -10071531.2234, 3547786.09570000320673 ], [ -10071473.8328, 3547769.102899998426437 ], [ -10071385.4591, 3547682.423000000417233 ], [ -10071387.1954, 3547598.924199998378754 ], [ -10071364.7752, 3547503.250900000333786 ], [ -10071308.1064, 3547271.155100002884865 ], [ -10071290.8015, 3547164.08110000193119 ], [ -10071128.3002, 3546969.986900001764297 ], [ -10071017.3023, 3546859.883400000631809 ], [ -10070860.8417, 3546769.352099999785423 ], [ -10070565.346, 3546637.885399997234344 ], [ -10070218.912, 3546522.602700002491474 ], [ -10070109.3042, 3546475.347599998116493 ], [ -10069839.9076, 3546352.482500001788139 ], [ -10069700.7114, 3546293.04110000282526 ], [ -10069508.9934, 3546196.001900002360344 ], [ -10069360.2557, 3546118.194200001657009 ], [ -10069211.84, 3546057.144599996507168 ], [ -10068984.2842, 3545999.890299998223782 ], [ -10068788.7263, 3545971.507299996912479 ], [ -10068532.7858, 3545874.283500000834465 ], [ -10068408.3762, 3545821.795199997723103 ], [ -10068355.334, 3545750.798100002110004 ], [ -10067974.833, 3545510.339199997484684 ], [ -10067815.1751, 3545440.296499997377396 ], [ -10067639.0986, 3545379.885300002992153 ], [ -10067492.1525, 3545305.707500003278255 ], [ -10067275.4803, 3545239.019500002264977 ], [ -10066961.2489, 3545161.732100002467632 ], [ -10066659.2944, 3545063.664099998772144 ], [ -10066575.6343, 3545026.862800002098083 ], [ -10066214.5175, 3544904.406700000166893 ] ] ] ] } }
]
}
